GLOBALSTAR M027         
1 25884U 99043B   25203.61490877 -.00000101  00000+0 -14140-2 0  9991
2 25884  52.0237  19.6706 0022038  50.0255 310.2470 11.04372221145155
GLOBALSTAR M054         
1 25885U 99043C   25203.60107072 -.00000090  00000+0 -48618-3 0  9998
2 25885  52.0127 141.0582 0005246 239.5881 291.2659 11.39225033123088
GLOBALSTAR M058         
1 25907U 99049A   25203.57627671 -.00000055  00000+0  39157-3 0  9995
2 25907  51.9961  14.6765 0001967 358.4264   1.6564 11.93200927545763
GLOBALSTAR M050         
1 25908U 99049B   25203.47277729  .00000008  00000+0  10819-2 0  9990
2 25908  52.0011  19.9922 0009995 100.7618 292.8881 12.07455531152450
GLOBALSTAR M033         
1 25909U 99049C   25203.57108057 -.00000111  00000+0 -18942-3 0  9992
2 25909  51.9898 249.1123 0013402 335.2194  24.8008 12.20294794540063
GLOBALSTAR M055         
1 25910U 99049D   25203.45994118 -.00000062  00000+0  27566-3 0  9998
2 25910  52.0004 258.4563 0007284 203.3663 156.6858 12.29430146172626
